{
  "type": "FeatureCollection",
  "features": [
    {
      "type": "Feature",
      "properties": {
        "norad_id": 38474,
        "name": "IRIDIUM 33 DEB",
        "group": "iridium-33-debris",
        "lat": -47.92304751284998,
        "lon": 2.6777445122496584,
        "alt_km": 737.6956829726296,
        "timestamp": "2025-12-20T09:36:02.034478+00:00",
        "meta_object_name": "IRIDIUM 33 DEB",
        "meta_object_id": "1997-051AAB",
        "meta_epoch": "2025-12-19T07:20:05.894592",
        "meta_mean_motion": 14.50712379,
        "meta_eccentricity": 0.0027817,
        "meta_inclination": 86.3489,
        "meta_ra_of_asc_node": 7.2093,
        "meta_arg_of_pericenter": 68.0282,
        "meta_mean_anomaly": 292.3875,
        "meta_ephemeris_type": 0,
        "meta_classification_type": "U",
        "meta_norad_cat_id": 38474,
        "meta_element_set_no": 999,
        "meta_rev_at_epoch": 65413,
        "meta_bstar": 0.00035872,
        "meta_mean_motion_dot": 1.437e-05,
        "meta_mean_motion_ddot": 0,
        "tle_line1": "1 38474U 97051AAB 25353.30562378  .00001437  00000+0  35872-3 0  9992",
        "tle_line2": "2 38474  86.3489   7.2093 0027817  68.0282 292.3875 14.50712379654132"
      },
      "geometry": {
        "type": "Point",
        "coordinates": [
          2.6777445122496584,
          -47.92304751284998
        ]
      }
    },
    {
      "type": "Feature",
      "properties": {
        "norad_id": 39777,
        "name": "IRIDIUM 33 DEB",
        "group": "iridium-33-debris",
        "lat": 20.822788800575882,
        "lon": -10.213778165563639,
        "alt_km": 661.632074423148,
        "timestamp": "2025-12-20T09:36:02.034488+00:00",
        "meta_object_name": "IRIDIUM 33 DEB",
        "meta_object_id": "1997-051AAJ",
        "meta_epoch": "2025-12-17T11:37:29.440128",
        "meta_mean_motion": 14.56536598,
        "meta_eccentricity": 0.00601884,
        "meta_inclination": 85.9622,
        "meta_ra_of_asc_node": 172.7412,
        "meta_arg_of_pericenter": 170.5587,
        "meta_mean_anomaly": 189.6768,
        "meta_ephemeris_type": 0,
        "meta_classification_type": "U",
        "meta_norad_cat_id": 39777,
        "meta_element_set_no": 999,
        "meta_rev_at_epoch": 60254,
        "meta_bstar": 0.0020288102,
        "meta_mean_motion_dot": 9.279e-05,
        "meta_mean_motion_ddot": 0,
        "tle_line1": "1 39777U 97051AAJ 25351.48436852  .00009279  00000+0  20288-2 0  9999",
        "tle_line2": "2 39777  85.9622 172.7412 0060188 170.5587 189.6768 14.56536598602541"
      },
      "geometry": {
        "type": "Point",
        "coordinates": [
          -10.213778165563639,
          20.822788800575882
        ]
      }
    },
    {
      "type": "Feature",
      "properties": {
        "norad_id": 39778,
        "name": "IRIDIUM 33 DEB",
        "group": "iridium-33-debris",
        "lat": -67.31168002757408,
        "lon": 31.185340872351414,
        "alt_km": 718.5392838415319,
        "timestamp": "2025-12-20T09:36:02.034498+00:00",
        "meta_object_name": "IRIDIUM 33 DEB",
        "meta_object_id": "1997-051AAK",
        "meta_epoch": "2025-12-18T10:01:19.260192",
        "meta_mean_motion": 14.5430124,
        "meta_eccentricity": 0.00073585,
        "meta_inclination": 86.3776,
        "meta_ra_of_asc_node": 40.7612,
        "meta_arg_of_pericenter": 24.7507,
        "meta_mean_anomaly": 335.4052,
        "meta_ephemeris_type": 0,
        "meta_classification_type": "U",
        "meta_norad_cat_id": 39778,
        "meta_element_set_no": 999,
        "meta_rev_at_epoch": 60775,
        "meta_bstar": 0.00067163185,
        "meta_mean_motion_dot": 2.869e-05,
        "meta_mean_motion_ddot": 0,
        "tle_line1": "1 39778U 97051AAK 25352.41758403  .00002869  00000+0  67163-3 0  9995",
        "tle_line2": "2 39778  86.3776  40.7612 0007358  24.7507 335.4052 14.54301240607752"
      },
      "geometry": {
        "type": "Point",
        "coordinates": [
          31.185340872351414,
          -67.31168002757408
        ]
      }
    },
    {
      "type": "Feature",
      "properties": {
        "norad_id": 39781,
        "name": "IRIDIUM 33 DEB",
        "group": "iridium-33-debris",
        "lat": -23.09751126006225,
        "lon": 76.3725966066038,
        "alt_km": 739.3787098190369,
        "timestamp": "2025-12-20T09:36:02.034508+00:00",
        "meta_object_name": "IRIDIUM 33 DEB",
        "meta_object_id": "1997-051AAN",
        "meta_epoch": "2025-12-20T00:15:44.286336",
        "meta_mean_motion": 14.2080867,
        "meta_eccentricity": 0.0174105,
        "meta_inclination": 86.3716,
        "meta_ra_of_asc_node": 254.9822,
        "meta_arg_of_pericenter": 249.9467,
        "meta_mean_anomaly": 125.5554,
        "meta_ephemeris_type": 0,
        "meta_classification_type": "U",
        "meta_norad_cat_id": 39781,
        "meta_element_set_no": 999,
        "meta_rev_at_epoch": 8210,
        "meta_bstar": 0.0030068,
        "meta_mean_motion_dot": 7.585e-05,
        "meta_mean_motion_ddot": 0,
        "tle_line1": "1 39781U 97051AAN 25354.01092924  .00007585  00000+0  30068-2 0  9999",
        "tle_line2": "2 39781  86.3716 254.9822 0174105 249.9467 125.5554 14.20808670 82106"
      },
      "geometry": {
        "type": "Point",
        "coordinates": [
          76.3725966066038,
          -23.09751126006225
        ]
      }
    },
    {
      "type": "Feature",
      "properties": {
        "norad_id": 40996,
        "name": "IRIDIUM 33 DEB",
        "group": "iridium-33-debris",
        "lat": -60.41593302671708,
        "lon": -8.624719917118364,
        "alt_km": 585.990437810131,
        "timestamp": "2025-12-20T09:36:02.034518+00:00",
        "meta_object_name": "IRIDIUM 33 DEB",
        "meta_object_id": "1997-051ABJ",
        "meta_epoch": "2025-12-19T00:18:17.890848",
        "meta_mean_motion": 14.96620971,
        "meta_eccentricity": 0.00114718,
        "meta_inclination": 86.3508,
        "meta_ra_of_asc_node": 358.4785,
        "meta_arg_of_pericenter": 46.0605,
        "meta_mean_anomaly": 343.7105,
        "meta_ephemeris_type": 0,
        "meta_classification_type": "U",
        "meta_norad_cat_id": 40996,
        "meta_element_set_no": 999,
        "meta_rev_at_epoch": 62582,
        "meta_bstar": 0.0021050571,
        "meta_mean_motion_dot": 0.00024091,
        "meta_mean_motion_ddot": 0,
        "tle_line1": "1 40996U 97051ABJ 25353.01270707  .00024091  00000+0  21051-2 0  9998",
        "tle_line2": "2 40996  86.3508 358.4785 0011471  46.0605 343.7105 14.96620971625826"
      },
      "geometry": {
        "type": "Point",
        "coordinates": [
          -8.624719917118364,
          -60.41593302671708
        ]
      }
    },
    {
      "type": "Feature",
      "properties": {
        "norad_id": 40998,
        "name": "IRIDIUM 33 DEB",
        "group": "iridium-33-debris",
        "lat": 59.17719424822138,
        "lon": 56.470554905900116,
        "alt_km": 729.4773734612363,
        "timestamp": "2025-12-20T09:36:02.034530+00:00",
        "meta_object_name": "IRIDIUM 33 DEB",
        "meta_object_id": "1997-051ABL",
        "meta_epoch": "2025-12-19T22:16:12.052992",
        "meta_mean_motion": 14.4511921,
        "meta_eccentricity": 0.000918,
        "meta_inclination": 86.3822,
        "meta_ra_of_asc_node": 50.5853,
        "meta_arg_of_pericenter": 65.4089,
        "meta_mean_anomaly": 59.4922,
        "meta_ephemeris_type": 0,
        "meta_classification_type": "U",
        "meta_norad_cat_id": 40998,
        "meta_element_set_no": 999,
        "meta_rev_at_epoch": 6785,
        "meta_bstar": 0.00031233,
        "meta_mean_motion_dot": 1.112e-05,
        "meta_mean_motion_ddot": 0,
        "tle_line1": "1 40998U 97051ABL 25353.92791728  .00001112  00000+0  31233-3 0  9994",
        "tle_line2": "2 40998  86.3822  50.5853 0009180  65.4089  59.4922 14.45119210 67852"
      },
      "geometry": {
        "type": "Point",
        "coordinates": [
          56.470554905900116,
          59.17719424822138
        ]
      }
    },
    {
      "type": "Feature",
      "properties": {
        "norad_id": 46435,
        "name": "IRIDIUM 33 DEB",
        "group": "iridium-33-debris",
        "lat": -57.15916506058968,
        "lon": -175.1254130542061,
        "alt_km": 694.6194281909993,
        "timestamp": "2025-12-20T09:36:02.034542+00:00",
        "meta_object_name": "IRIDIUM 33 DEB",
        "meta_object_id": "1997-051ABN",
        "meta_epoch": "2025-12-13T20:22:29.882208",
        "meta_mean_motion": 14.32399442,
        "meta_eccentricity": 0.0208315,
        "meta_inclination": 86.2839,
        "meta_ra_of_asc_node": 193.4722,
        "meta_arg_of_pericenter": 272.7642,
        "meta_mean_anomaly": 103.0816,
        "meta_ephemeris_type": 0,
        "meta_classification_type": "U",
        "meta_norad_cat_id": 46435,
        "meta_element_set_no": 999,
        "meta_rev_at_epoch": 7932,
        "meta_bstar": 0.009141333,
        "meta_mean_motion_dot": 0.00031559,
        "meta_mean_motion_ddot": 0,
        "tle_line1": "1 46435U 97051ABN 25347.84895697  .00031559  00000+0  91413-2 0  9993",
        "tle_line2": "2 46435  86.2839 193.4722 0208315 272.7642 103.0816 14.32399442 79328"
      },
      "geometry": {
        "type": "Point",
        "coordinates": [
          -175.1254130542061,
          -57.15916506058968
        ]
      }
    }
  ]
}